{"type": "FeatureCollection", "features": [ {"type": "Feature", "properties": {"norad_id": 43010, "name": "FENGYUN 3D", "group": "weather", "lat": 16.49462842845501, "lon": 150.14725780173896, "alt_km": 825.8484994720038, "timestamp": "2025-12-26T22:28:05.422619+00:00", "meta": {"OBJECT_NAME": "FENGYUN 3D", "OBJECT_ID": "2017-072A", "EPOCH": "2025-12-26T14:56:10.501728", "MEAN_MOTION": 14.1968714, "ECCENTRICITY": 0.00016151, "INCLINATION": 98.9916, "RA_OF_ASC_NODE": 327.1414, "ARG_OF_PERICENTER": 144.6156, "MEAN_ANOMALY": 215.5127, "EPHEMERIS_TYPE": 0, "CLASSIFICATION_TYPE": "U", "NORAD_CAT_ID": 43010, "ELEMENT_SET_NO": 999, "REV_AT_EPOCH": 42050, "BSTAR": 2.6162642e-05, "MEAN_MOTION_DOT": 9e-08, "MEAN_MOTION_DDOT": 0}, "tle": {"line1": "1 43010U 17072A   25360.62234377  .00000009  00000+0  26163-4 0  9995", "line2": "2 43010  98.9916 327.1414 0001615 144.6156 215.5127 14.19687140420509"}}, "geometry": {"type": "Point", "coordinates": [150.14725780173896, 16.49462842845501]}}, {"type": "Feature", "properties": {"norad_id": 43013, "name": "NOAA 20 (JPSS-1)", "group": "weather", "lat": -52.071950560114686, "lon": -51.50683375896358, "alt_km": 834.58772670285, "timestamp": "2025-12-26T22:28:05.422630+00:00", "meta": {"OBJECT_NAME": "NOAA 20 (JPSS-1)", "OBJECT_ID": "2017-073A", "EPOCH": "2025-12-26T14:15:32.122656", "MEAN_MOTION": 14.1952945, "ECCENTRICITY": 0.00020546, "INCLINATION": 98.7616, "RA_OF_ASC_NODE": 296.7404, "ARG_OF_PERICENTER": 67.5119, "MEAN_ANOMALY": 292.6275, "EPHEMERIS_TYPE": 0, "CLASSIFICATION_TYPE": "U", "NORAD_CAT_ID": 43013, "ELEMENT_SET_NO": 999, "REV_AT_EPOCH": 41998, "BSTAR": 7.2866784e-05, "MEAN_MOTION_DOT": 1.1e-06, "MEAN_MOTION_DDOT": 0}, "tle": {"line1": "1 43013U 17073A   25360.59412179  .00000110  00000+0  72867-4 0  9998", "line2": "2 43013  98.7616 296.7404 0002054  67.5119 292.6275 14.19529450419986"}}, "geometry": {"type": "Point", "coordinates": [-51.50683375896358, -52.071950560114686]}}, {"type": "Feature", "properties": {"norad_id": 43226, "name": "GOES 17", "group": "weather", "lat": -0.4818034778192926, "lon": -16.77642312017056, "alt_km": 35780.10118519935, "timestamp": "2025-12-26T22:28:05.422643+00:00", "meta": {"OBJECT_NAME": "GOES 17", "OBJECT_ID": "2018-022A", "EPOCH": "2025-12-26T13:28:40.537056", "MEAN_MOTION": 1.0027151, "ECCENTRICITY": 0.0003196, "INCLINATION": 0.4913, "RA_OF_ASC_NODE": 89.0151, "ARG_OF_PERICENTER": 191.2344, "MEAN_ANOMALY": 287.726, "EPHEMERIS_TYPE": 0, "CLASSIFICATION_TYPE": "U", "NORAD_CAT_ID": 43226, "ELEMENT_SET_NO": 999, "REV_AT_EPOCH": 2869, "BSTAR": 0, "MEAN_MOTION_DOT": -1.61e-06, "MEAN_MOTION_DDOT": 0}, "tle": {"line1": "1 43226U 18022A   25360.56158029 -.00000161  00000+0  00000+0 0  9999", "line2": "2 43226   0.4913  89.0151 0003196 191.2344 287.7260  1.00271510 28697"}}, "geometry": {"type": "Point", "coordinates": [-16.77642312017056, -0.4818034778192926]}}, {"type": "Feature", "properties": {"norad_id": 43491, "name": "FENGYUN 2H", "group": "weather", "lat": 2.4540945811890817, "lon": 151.97155936418673, "alt_km": 35787.38631844405, "timestamp": "2025-12-26T22:28:05.422656+00:00", "meta": {"OBJECT_NAME": "FENGYUN 2H", "OBJECT_ID": "2018-050A", "EPOCH": "2025-12-26T19:17:01.821984", "MEAN_MOTION": 1.00270105, "ECCENTRICITY": 0.0002484, "INCLINATION": 2.5849, "RA_OF_ASC_NODE": 81.1809, "ARG_OF_PERICENTER": 166.8993, "MEAN_ANOMALY": 216.048, "EPHEMERIS_TYPE": 0, "CLASSIFICATION_TYPE": "U", "NORAD_CAT_ID": 43491, "ELEMENT_SET_NO": 999, "REV_AT_EPOCH": 2771, "BSTAR": 0, "MEAN_MOTION_DOT": -1.08e-06, "MEAN_MOTION_DDOT": 0}, "tle": {"line1": "1 43491U 18050A   25360.80349331 -.00000108  00000+0  00000+0 0  9990", "line2": "2 43491   2.5849  81.1809 0002484 166.8993 216.0480  1.00270105 27712"}}, "geometry": {"type": "Point", "coordinates": [151.97155936418673, 2.4540945811890817]}}, {"type": "Feature", "properties": {"norad_id": 43689, "name": "METOP-C", "group": "weather", "lat": -8.110503728743637, "lon": -122.7621714515035, "alt_km": 824.6219562728302, "timestamp": "2025-12-26T22:28:05.422667+00:00", "meta": {"OBJECT_NAME": "METOP-C", "OBJECT_ID": "2018-087A", "EPOCH": "2025-12-26T18:12:26.908992", "MEAN_MOTION": 14.21489651, "ECCENTRICITY": 5.44e-05, "INCLINATION": 98.691, "RA_OF_ASC_NODE": 58.3121, "ARG_OF_PERICENTER": 12.0062, "MEAN_ANOMALY": 348.1128, "EPHEMERIS_TYPE": 0, "CLASSIFICATION_TYPE": "U", "NORAD_CAT_ID": 43689, "ELEMENT_SET_NO": 999, "REV_AT_EPOCH": 37033, "BSTAR": 8.2625e-05, "MEAN_MOTION_DOT": 1.37e-06, "MEAN_MOTION_DDOT": 0}, "tle": {"line1": "1 43689U 18087A   25360.75864478  .00000137  00000+0  82625-4 0  9996", "line2": "2 43689  98.6910  58.3121 0000544  12.0062 348.1128 14.21489651370333"}}, "geometry": {"type": "Point", "coordinates": [-122.7621714515035, -8.110503728743637]}}, {"type": "Feature", "properties": {"norad_id": 43823, "name": "GEO-KOMPSAT-2A", "group": "weather", "lat": 0.022928422329196844, "lon": -159.08365969320602, "alt_km": 35787.85085865894, "timestamp": "2025-12-26T22:28:05.422687+00:00", "meta": {"OBJECT_NAME": "GEO-KOMPSAT-2A", "OBJECT_ID": "2018-100A", "EPOCH": "2025-12-25T12:13:38.614080", "MEAN_MOTION": 1.00268534, "ECCENTRICITY": 2.51e-05, "INCLINATION": 0.0434, "RA_OF_ASC_NODE": 172.7377, "ARG_OF_PERICENTER": 259.9479, "MEAN_ANOMALY": 333.2359, "EPHEMERIS_TYPE": 0, "CLASSIFICATION_TYPE": "U", "NORAD_CAT_ID": 43823, "ELEMENT_SET_NO": 999, "REV_AT_EPOCH": 2588, "BSTAR": 0, "MEAN_MOTION_DOT": -3.22e-06, "MEAN_MOTION_DDOT": 0}, "tle": {"line1": "1 43823U 18100A   25359.50947470 -.00000322  00000+0  00000+0 0  9996", "line2": "2 43823   0.0434 172.7377 0000251 259.9479 333.2359  1.00268534 25880"}}, "geometry": {"type": "Point", "coordinates": [-159.08365969320602, 0.022928422329196844]}}, {"type": "Feature", "properties": {"norad_id": 44387, "name": "METEOR-M2 2", "group": "weather", "lat": 44.909963941280004, "lon": -28.146274841625157, "alt_km": 806.6517703581476, "timestamp": "2025-12-26T22:28:05.422699+00:00", "meta": {"OBJECT_NAME": "METEOR-M2 2", "OBJECT_ID": "2019-038A", "EPOCH": "2025-12-26T18:52:57.948384", "MEAN_MOTION": 14.24297252, "ECCENTRICITY": 0.0001854, "INCLINATION": 98.8991, "RA_OF_ASC_NODE": 340.6882, "ARG_OF_PERICENTER": 122.5542, "MEAN_ANOMALY": 237.5815, "EPHEMERIS_TYPE": 0, "CLASSIFICATION_TYPE": "U", "NORAD_CAT_ID": 44387, "ELEMENT_SET_NO": 999, "REV_AT_EPOCH": 33675, "BSTAR": 8.9593e-05, "MEAN_MOTION_DOT": 1.61e-06, "MEAN_MOTION_DDOT": 0}, "tle": {"line1": "1 44387U 19038A   25360.78678181  .00000161  00000+0  89593-4 0  9994", "line2": "2 44387  98.8991 340.6882 0001854 122.5542 237.5815 14.24297252336755"}}, "geometry": {"type": "Point", "coordinates": [-28.146274841625157, 44.909963941280004]}}, {"type": "Feature", "properties": {"norad_id": 47719, "name": "ARKTIKA-M 1", "group": "weather", "lat": 42.66070485041429, "lon": -125.65472305661682, "alt_km": 21377.737938572543, "timestamp": "2025-12-26T22:28:05.422712+00:00", "meta": {"OBJECT_NAME": "ARKTIKA-M 1", "OBJECT_ID": "2021-016A", "EPOCH": "2025-12-26T00:48:12.401568", "MEAN_MOTION": 2.00630537, "ECCENTRICITY": 0.72107999, "INCLINATION": 63.1768, "RA_OF_ASC_NODE": 82.1795, "ARG_OF_PERICENTER": 269.1717, "MEAN_ANOMALY": 15.5344, "EPHEMERIS_TYPE": 0, "CLASSIFICATION_TYPE": "U", "NORAD_CAT_ID": 47719, "ELEMENT_SET_NO": 999, "REV_AT_EPOCH": 3531, "BSTAR": 0, "MEAN_MOTION_DOT": -4.1e-07, "MEAN_MOTION_DDOT": 0}, "tle": {"line1": "1 47719U 21016A   25360.03347687 -.00000041  00000+0  00000+0 0  9996", "line2": "2 47719  63.1768  82.1795 7210799 269.1717  15.5344  2.00630537 35311"}}, "geometry": {"type": "Point", "coordinates": [-125.65472305661682, 42.66070485041429]}}, {"type": "Feature", "properties": {"norad_id": 49008, "name": "FENGYUN 3E", "group": "weather", "lat": 39.82338139828611, "lon": -171.33422170060385, "alt_km": 822.0776691996862, "timestamp": "2025-12-26T22:28:05.422723+00:00", "meta": {"OBJECT_NAME": "FENGYUN 3E", "OBJECT_ID": "2021-062A", "EPOCH": "2025-12-26T18:25:50.637216", "MEAN_MOTION": 14.19882078, "ECCENTRICITY": 0.0001063, "INCLINATION": 98.7482, "RA_OF_ASC_NODE": 1.1225, "ARG_OF_PERICENTER": 184.7318, "MEAN_ANOMALY": 175.3848, "EPHEMERIS_TYPE": 0, "CLASSIFICATION_TYPE": "U", "NORAD_CAT_ID": 49008, "ELEMENT_SET_NO": 999, "REV_AT_EPOCH": 23211, "BSTAR": 8.2193e-05, "MEAN_MOTION_DOT": 1.3e-06, "MEAN_MOTION_DDOT": 0}, "tle": {"line1": "1 49008U 21062A   25360.76794719  .00000130  00000+0  82193-4 0  9998", "line2": "2 49008  98.7482   1.1225 0001063 184.7318 175.3848 14.19882078232117"}}, "geometry": {"type": "Point", "coordinates": [-171.33422170060385, 39.82338139828611]}}, {"type": "Feature", "properties": {"norad_id": 51850, "name": "GOES 18", "group": "weather", "lat": 0.009238286215144723, "lon": -64.32366890285641, "alt_km": 35786.44796743095, "timestamp": "2025-12-26T22:28:05.422737+00:00", "meta": {"OBJECT_NAME": "GOES 18", "OBJECT_ID": "2022-021A", "EPOCH": "2025-12-26T13:25:07.004640", "MEAN_MOTION": 1.00266539, "ECCENTRICITY": 2.67e-05, "INCLINATION": 0.0396, "RA_OF_ASC_NODE": 207.2899, "ARG_OF_PERICENTER": 107.2467, "MEAN_ANOMALY": 205.0399, "EPHEMERIS_TYPE": 0, "CLASSIFICATION_TYPE": "U", "NORAD_CAT_ID": 51850, "ELEMENT_SET_NO": 999, "REV_AT_EPOCH": 486, "BSTAR": 0, "MEAN_MOTION_DOT": 1.19e-06, "MEAN_MOTION_DDOT": 0}, "tle": {"line1": "1 51850U 22021A   25360.55910885  .00000119  00000+0  00000+0 0  9992", "line2": "2 51850   0.0396 207.2899 0000267 107.2467 205.0399  1.00266539  4866"}}, "geometry": {"type": "Point", "coordinates": [-64.32366890285641, 0.009238286215144723]}}]}